GLOBALSTAR M068         
1 32266U 07048D   25187.56150356 -.00000055  00000+0  26894-3 0  9994
2 32266  51.9872 243.1993 0001322 170.3393 337.3910 12.62825888820004
GLOBALSTAR M079         
1 37188U 10054A   25187.12079575 -.00000108  00000+0 -22298-4 0  9993
2 37188  52.0044  82.1487 0000768  35.0040 112.5926 12.62265344678841
GLOBALSTAR M074         
1 37189U 10054B   25186.89504403 -.00000107  00000+0 -20405-4 0  9997
2 37189  52.0017  82.1571 0000832  59.8426  19.6887 12.62266440679426
GLOBALSTAR M076         
1 37190U 10054C   25187.09439237 -.00000118  00000+0 -76915-4 0  9993
2 37190  52.0035  81.7218 0000921  47.9558  98.9012 12.62263324679163
GLOBALSTAR M077         
1 37191U 10054D   25187.61078172 -.00000101  00000+0  14738-4 0  9995
2 37191  52.0086  37.0119 0000862  74.4511 320.4051 12.62268770679607
GLOBALSTAR M075         
1 37192U 10054E   25187.26763825 -.00000096  00000+0  40681-4 0  9992
2 37192  51.9939 123.4408 0000451  40.8939 113.6205 12.62265940678258
GLOBALSTAR M073         
1 37193U 10054F   25187.10867112 -.00000100  00000+0  22516-4 0  9993
2 37193  52.0074  37.7580 0000913  66.9589  84.9971 12.62272328680220
GLOBALSTAR M083         
1 37739U 11033A   25187.58024134 -.00000093  00000+0  60746-4 0  9996
2 37739  51.9880 345.0294 0000648 101.8523 332.7085 12.62259699649308
GLOBALSTAR M088         
1 37740U 11033B   25187.65238616 -.00000081  00000+0  12709-3 0  9990
2 37740  52.0204 250.3996 0000481 152.9562  10.4427 12.62266480644855
GLOBALSTAR M091         
1 37741U 11033C   25187.50432461 -.00000074  00000+0  16496-3 0  9998
2 37741  51.9968 214.3239 0000279 227.5842 283.1866 12.62269232645626
GLOBALSTAR M085         
1 37742U 11033D   25187.41425862 -.00000092  00000+0  67645-4 0  9999
2 37742  51.9843 165.6172 0000222 322.1701 199.7016 12.62269661646128
GLOBALSTAR M081         
1 37743U 11033E   25187.44226773 -.00000085  00000+0  10394-3 0  9993
2 37743  51.9935 168.3333 0000345 350.8887 176.8103 12.62267056646274
GLOBALSTAR M089         
1 37744U 11033F   25187.23957612 -.00000107  00000+0 -20092-4 0  9997
2 37744  51.9922 123.1728 0000695  55.0815  92.3555 12.62265182647093
GLOBALSTAR M084         
1 38040U 11080A   25187.63387691 -.00000098  00000+0  34834-4 0  9994
2 38040  52.0030 349.2719 0001129  91.6461 347.5857 12.62266938625122
GLOBALSTAR M080         
1 38041U 11080B   25187.60479491 -.00000099  00000+0  25490-4 0  9991
2 38041  52.0082 350.9594 0000776 130.5511 305.8755 12.62263768625241
GLOBALSTAR M082         
1 38042U 11080C   25187.62639693 -.00000103  00000+0  28163-5 0  9993
2 38042  52.0092 306.3570 0000650 150.2666 315.1879 12.62266966625955
GLOBALSTAR M092         
1 38043U 11080D   25187.58318362 -.00000095  00000+0  46902-4 0  9996
2 38043  52.0099  36.8649 0000852  81.1722 307.6256 12.62264500624613
GLOBALSTAR M090         
1 38044U 11080E   25187.65316134 -.00000105  00000+0 -44501-5 0  9997
2 38044  52.0137 300.1170 0000509 122.2921 346.2276 12.62260492626079
GLOBALSTAR M086         
1 38045U 11080F   25187.60320730 -.00000102  00000+0  97593-5 0  9995
2 38045  51.9910 300.7606 0001053  41.8833  80.0059 12.62272148626017
GLOBALSTAR M097         
1 39072U 13005A   25187.44464541 -.00000099  00000+0  28900-4 0  9996
2 39072  52.0029 215.8094 0000014 162.7223 197.3644 12.62265530573245
GLOBALSTAR M093         
1 39073U 13005B   25187.41830771 -.00000081  00000+0  12757-3 0  9999
2 39073  51.9783 209.1617 0000086 278.3382  81.7475 12.62265890573198
GLOBALSTAR M094         
1 39074U 13005C   25187.18087047 -.00000111  00000+0 -39332-4 0  9998
2 39074  51.9953 124.2853 0000537   7.4558 352.6317 12.62262803574775
GLOBALSTAR M096         
1 39075U 13005D   25187.35237841 -.00000096  00000+0  44409-4 0  9999
2 39075  52.0046 172.2925 0000296 325.0190  35.0657 12.62265551573712
GLOBALSTAR M078         
1 39076U 13005E   25187.48438152  .00000016  00000+0  67004-3 0  9998
2 39076  51.9864 256.3776 0000929 194.9818 165.1021 12.62259868572353
GLOBALSTAR M095         
1 39077U 13005F   25187.35221729 -.00000081  00000+0  12607-3 0  9997
2 39077  51.9791 253.9658 0000464 208.4691 151.6150 12.62267978572195
GLOBALSTAR M087         
1 52888U 22064A   25187.61615304 -.00000092  00000+0  64563-4 0  9993
2 52888  52.0007  34.6183 0001105  92.1050 267.9944 12.63725653147492
